{
  "norad_id": 51774,
  "name": "STARLINK-3629",
  "history": [
    {
      "epoch": "2026-03-28T17:43:23.513376",
      "apogee_km": 540.5891934057245,
      "perigee_km": 538.8236214112858,
      "latitude_deg": 12.050107504729436,
      "longitude_deg": 148.29279263992794,
      "semi_major_axis_km": 6917.843407408504,
      "eccentricity": 0.00012761,
      "inclination_deg": 53.2163,
      "raan_deg": 253.6074,
      "arg_perigee_deg": 95.6059,
      "mean_anomaly_deg": 264.5078,
      "mean_motion_rev_day": 15.08852099
    }
  ]
}